NORAD_CAT_ID,OBJECT_NAME,OBJECT_TYPE,EPOCH,MEAN_MOTION,ECCENTRICITY,INCLINATION,RA_OF_ASC_NODE,ARG_OF_PERICENTER,MEAN_ANOMALY,BSTAR,MEAN_MOTION_DOT,MEAN_MOTION_DDOT,TLE_LINE0,TLE_LINE1,TLE_LINE2,SEMIMAJOR_AXIS,PERIOD,APOGEE,PERIGEE,DECAYED
53182.0,STARLINK-4278,PAYLOAD,2022-09-20 22:00:01,15.73186816,0.0003126999999999,53.2151,83.5279,14.8793,212.0281,0.00030369,0.00042197,0.0,0 STARLINK-4278,1 53182U 22083BC  22263.91668981  .00042197  00000-0  30369-3 0  9994,2 53182  53.2151  83.5279 0003127  14.8793 212.0281 15.73186816  1303,6727.933000000001,91.534,351.902,347.694,0.0
53182.0,STARLINK-4278,PAYLOAD,2022-09-21 06:00:00,15.73182603,0.0002926,53.2149,81.8765,14.2278,301.5498,0.00014144,0.00019262,0.0,0 STARLINK-4278,1 53182U 22083BC  22264.25001157  .00019262  00000-0  14144-3 0  9998,2 53182  53.2149  81.8765 0002926  14.2278 301.5498 15.73182603 10987,6727.945,91.534,351.778,347.841,0.0
53182.0,STARLINK-4278,PAYLOAD,2022-09-21 22:00:00,15.73147173,0.0003263999999999,53.2151,78.5792,15.9976,117.5999,0.00075304,0.00106187,0.0,0 STARLINK-4278,1 53182U 22083BC  22264.91667824  .00106187  00000-0  75304-3 0  9998,2 53182  53.2151  78.5792 0003264  15.9976 117.5999 15.73147173  1302,6728.045999999999,91.536,352.107,347.715,0.0
53182.0,STARLINK-4278,PAYLOAD,2022-09-22 06:00:00,15.73230149,0.000309,53.2152,76.9277,15.0679,207.4328,-0.00025775,-0.00036696,0.0,0 STARLINK-4278,1 53182U 22083BC  22265.25001157 -.00036696  00000-0 -25775-3 0  9993,2 53182  53.2152  76.9277 0003090  15.0679 207.4328 15.73230149 11145,6727.809,91.531,351.75300000000016,347.595,0.0
53182.0,STARLINK-4278,PAYLOAD,2022-09-22 14:00:01,15.73193305,0.0003099,53.2149,75.2785,13.9983,297.4478,7.7632e-05,0.00010285,0.0,0 STARLINK-4278,1 53182U 22083BC  22265.58334491  .00010285  00000-0  77632-4 0  9993,2 53182  53.2149  75.2785 0003099  13.9983 297.4478 15.73193305  1305,6727.9140000000025,91.534,351.86400000000015,347.694,0.0
53182.0,STARLINK-4278,PAYLOAD,2022-09-22 22:00:00,15.73209235,0.0003351,53.2143,73.6305,11.0478,29.3283,-8.0862e-06,-1.759e-05,0.0,0 STARLINK-4278,1 53182U 22083BC  22265.91667824 -.00001759  00000-0 -80862-5 0  9997,2 53182  53.2143  73.6305 0003351  11.0478  29.3283 15.73209235 11248,6727.869000000002,91.533,351.98800000000006,347.47900000000016,0.0
53182.0,STARLINK-4278,PAYLOAD,2022-09-23 14:00:01,15.73238322,0.0003123,53.2149,70.3293,9.4875,208.7507,5.701100000000003e-05,7.4e-05,0.0,0 STARLINK-4278,1 53182U 22083BC  22266.58334491  .00007400  00000-0  57011-4 0  9998,2 53182  53.2149  70.3293 0003123   9.4875 208.7507 15.73238322  1300,6727.786,91.531,351.75199999999984,347.55,0.0
53182.0,STARLINK-4278,PAYLOAD,2022-09-23 22:00:00,15.73244883,0.0003458,53.2146,68.6814,7.2504,299.9795,-0.00028058,-0.00039905,0.0,0 STARLINK-4278,1 53182U 22083BC  22266.91667824 -.00039905  00000-0 -28058-3 0  9999,2 53182  53.2146  68.6814 0003458   7.2504 299.9795 15.73244883 11404,6727.767,91.531,351.959,347.306,0.0
53182.0,STARLINK-4278,PAYLOAD,2022-09-24 14:00:01,15.73265444,0.0003398999999999,53.2146,65.3806,9.7089,115.4965,-6.0236e-05,-9.095e-05,0.0,0 STARLINK-4278,1 53182U 22083BC  22267.58335648 -.00009095  00000-0 -60236-4 0  9991,2 53182  53.2146  65.3806 0003399   9.7089 115.4965 15.73265444 11517,6727.709,91.529,351.86,347.287,0.0
53182.0,STARLINK-4278,PAYLOAD,2022-09-24 22:00:00,15.73246366,0.0003616,53.214,63.7321,5.829,208.317,-0.00025834,-0.00036808,0.0,0 STARLINK-4278,1 53182U 22083BC  22267.91667824 -.00036808  00000-0 -25834-3 0  9998,2 53182  53.2140  63.7321 0003616   5.8290 208.3170 15.73246366  1306,6727.763000000001,91.53,352.061,347.195,0.0
53182.0,STARLINK-4278,PAYLOAD,2022-09-25 06:00:00,15.73174398,0.0003403,53.2142,62.0804,5.6231,297.5028,0.000166,0.00022718,0.0,0 STARLINK-4278,1 53182U 22083BC  22268.25001157  .00022718  00000-0  16600-3 0  9991,2 53182  53.2142  62.0804 0003403   5.6231 297.5028 15.73174398 11615,6727.968000000003,91.535,352.12300000000016,347.5440000000001,0.0
53182.0,STARLINK-4278,PAYLOAD,2022-09-25 14:00:01,15.7323995,0.0003516,53.2146,60.4316,6.4467,25.5748,-0.00050383,-0.00070888,0.0,0 STARLINK-4278,1 53182U 22083BC  22268.58334491 -.00070888  00000-0 -50383-3 0  9996,2 53182  53.2146  60.4316 0003516   6.4467  25.5748 15.73239950  1303,6727.781,91.531,352.01199999999994,347.281,0.0
53182.0,STARLINK-4278,PAYLOAD,2022-09-25 22:00:01,15.7321766,0.0003798,53.215,58.7781,7.4005,113.6382,-0.00052372,-0.00073575,0.0,0 STARLINK-4278,1 53182U 22083BC  22268.91668981 -.00073575  00000-0 -52372-3 0  9993,2 53182  53.2150  58.7781 0003798   7.4005 113.6382 15.73217660  1302,6727.845,91.532,352.265,347.155,0.0
53182.0,STARLINK-4278,PAYLOAD,2022-09-26 10:00:00,15.73144709,0.0003628,53.2151,56.3069,10.8729,63.3637,0.00043878,0.00061279,0.0,0 STARLINK-4278,1 53182U 22083BC  22269.41667824  .00061279  00000-0  43878-3 0  9991,2 53182  53.2151  56.3069 0003628  10.8729  63.3637 15.73144709 11790,6728.053000000001,91.536,352.3590000000001,347.477,0.0
53182.0,STARLINK-4278,PAYLOAD,2022-09-26 14:00:01,15.73179928,0.0003778999999999,53.2148,55.4834,10.0332,288.6381,8.839e-05,0.00011792,0.0,0 STARLINK-4278,1 53182U 22083BC  22269.58334491  .00011792  00000-0  88390-4 0  9994,2 53182  53.2148  55.4834 0003779  10.0332 288.6381 15.73179928  1300,6727.9519999999975,91.534,352.36,347.275,0.0
53182.0,STARLINK-4278,PAYLOAD,2022-09-26 22:00:00,15.73296269,0.0004061,53.2153,53.8284,7.2053,20.4229,-0.001377,-0.00190473,0.0,0 STARLINK-4278,1 53182U 22083BC  22269.91667824 -.00190473  00000-0 -13770-2 0  9994,2 53182  53.2153  53.8284 0004061   7.2053  20.4229 15.73296269 11874,6727.621,91.528,352.218,346.754,0.0
53182.0,STARLINK-4278,PAYLOAD,2022-09-27 06:00:00,15.73167096,0.0003715,53.2145,52.183,6.0588,110.5122,0.00077046,0.00108793,0.0,0 STARLINK-4278,1 53182U 22083BC  22270.25001157  .00108793  00000-0  77046-3 0  9993,2 53182  53.2145  52.1830 0003715   6.0588 110.5122 15.73167096 11934,6727.989000000001,91.535,352.353,347.355,0.0
53182.0,STARLINK-4278,PAYLOAD,2022-09-27 14:00:01,15.73277974,0.0003868,53.2149,50.5347,5.7619,199.7376,-0.00055323,-0.00077848,0.0,0 STARLINK-4278,1 53182U 22083BC  22270.58334491 -.00077848  00000-0 -55323-3 0  9991,2 53182  53.2149  50.5347 0003868   5.7619 199.7376 15.73277974  1300,6727.6730000000025,91.529,352.14,346.936,0.0
53182.0,STARLINK-4278,PAYLOAD,2022-09-27 22:00:01,15.73260067,0.0004118,53.2149,48.8857,1.702,292.8577,-9.2951e-05,-0.00013689,0.0,0 STARLINK-4278,1 53182U 22083BC  22270.91668981 -.00013689  00000-0 -92951-4 0  9994,2 53182  53.2149  48.8857 0004118   1.7020 292.8577 15.73260067 12032,6727.724,91.53,352.3590000000001,346.8180000000001,0.0
53182.0,STARLINK-4278,PAYLOAD,2022-09-28 14:00:01,15.732743300000005,0.0004147999999999,53.2151,45.5861,2.7361,109.7428,-0.00099659,-0.00138734,0.0,0 STARLINK-4278,1 53182U 22083BC  22271.58334491 -.00138734  00000-0 -99659-3 0  9994,2 53182  53.2151  45.5861 0004148   2.7361 109.7428 15.73274330  1303,6727.683000000001,91.529,352.339,346.7580000000001,0.0
53182.0,STARLINK-4278,PAYLOAD,2022-09-28 22:00:00,15.73124065,0.0004341,53.2145,43.9371,4.2248,197.1308,0.0004064,0.00056637,0.0,0 STARLINK-4278,1 53182U 22083BC  22271.91667824  .00056637  00000-0  40640-3 0  9995,2 53182  53.2145  43.9371 0004341   4.2248 197.1308 15.73124065 12196,6728.111999999999,91.538,352.897,347.056,0.0
53182.0,STARLINK-4278,PAYLOAD,2022-09-29 14:00:01,15.73246353,0.0004306,53.2151,40.63800000000001,4.1967,14.9252,-0.0005521,-0.00077598,0.0,0 STARLINK-4278,1 53182U 22083BC  22272.58334491 -.00077598  00000-0 -55210-3 0  9990,2 53182  53.2151  40.6380 0004306   4.1967  14.9252 15.73246353  1305,6727.763000000001,91.53,352.525,346.731,0.0
53182.0,STARLINK-4278,PAYLOAD,2022-09-29 22:00:00,15.73205135,0.0004482,53.2151,38.9887,2.5992,105.4674,0.00033364,0.00046493,0.0,0 STARLINK-4278,1 53182U 22083BC  22272.91667824  .00046493  00000-0  33364-3 0  9990,2 53182  53.2151  38.9887 0004482   2.5992 105.4674 15.73205135 12356,6727.880999999999,91.533,352.761,346.73,0.0
53182.0,STARLINK-4278,PAYLOAD,2022-09-30 14:00:01,15.73232132,0.0004366,53.2151,35.6895,0.0217,285.966,-0.00026476,-0.00037689,0.0,0 STARLINK-4278,1 53182U 22083BC  22273.58334491 -.00037689  00000-0 -26476-3 0  9990,2 53182  53.2151  35.6895 0004366   0.0217 285.9660 15.73232132  1302,6727.804,91.531,352.606,346.731,0.0
53182.0,STARLINK-4278,PAYLOAD,2022-09-30 22:00:00,15.73199545,0.0004386999999999,53.2145,34.04,357.9635,16.9783,-1.7064e-05,-3.021e-05,0.0,0 STARLINK-4278,1 53182U 22083BC  22273.91667824 -.00003021  00000-0 -17064-4 0  9993,2 53182  53.2145  34.0400 0004387 357.9635  16.9783 15.73199545  1309,6727.896,91.533,352.713,346.81,0.0
53182.0,STARLINK-4278,PAYLOAD,2022-10-01 06:00:00,15.73212276,0.0004118,53.2147,32.3887,358.8214,105.0513,3.1078e-05,3.743e-05,0.0,0 STARLINK-4278,1 53182U 22083BC  22274.25001157  .00003743  00000-0  31078-4 0  9992,2 53182  53.2147  32.3887 0004118 358.8214 105.0513 15.73212276 12564,6727.86,91.532,352.496,346.955,0.0
53182.0,STARLINK-4278,PAYLOAD,2022-10-01 14:00:01,15.73231715,0.0004298,53.2148,30.7409,0.2812,192.5283,-0.00033882,-0.00047998,0.0,0 STARLINK-4278,1 53182U 22083BC  22274.58334491 -.00047998  00000-0 -33882-3 0  9994,2 53182  53.2148  30.7409 0004298   0.2812 192.5283 15.73231715  1302,6727.805,91.531,352.561,346.778,0.0
53182.0,STARLINK-4278,PAYLOAD,2022-10-01 22:00:00,15.73223754,0.0004264999999999,53.2149,29.0911,356.0882,285.6635,-0.00093269,-0.00129739,0.0,0 STARLINK-4278,1 53182U 22083BC  22274.91667824 -.00129739  00000-0 -93269-3 0  9999,2 53182  53.2149  29.0911 0004265 356.0882 285.6635 15.73223754 12665,6727.8269999999975,91.532,352.56199999999984,346.8230000000001,0.0
53182.0,STARLINK-4278,PAYLOAD,2022-10-02 14:00:01,15.73156568,0.0004352,53.2149,25.7924,355.9918,103.5107,0.00036286,0.00050537,0.0,0 STARLINK-4278,1 53182U 22083BC  22275.58334491  .00050537  00000-0  36286-3 0  9997,2 53182  53.2149  25.7924 0004352 355.9918 103.5107 15.73156568 12779,6728.019,91.536,352.81199999999984,346.956,0.0
